GLOBALSTAR M045 [-]     
1 25676U 99019A   24115.17326948 -.00000043  00000+0  44546-3 0  9990
2 25676  51.9982  59.5177 0000826  88.6686  17.0965 12.27036141142196
GLOBALSTAR M019 [-]     
1 25677U 99019B   24114.31929685 -.00000122  00000+0 -33155-3 0  9996
2 25677  51.9849 162.7810 0001297 185.7711 254.6055 12.13854000134154
GLOBALSTAR M044 [-]     
1 25678U 99019C   24114.86414740 -.00000080  00000+0  51758-4 0  9990
2 25678  51.9982  60.1650 0006177 315.2627  59.0230 11.90231093121393
GLOBALSTAR M042 [-]     
1 25679U 99019D   24114.49950692 -.00000041  00000+0  47834-3 0  9997
2 25679  51.9990 155.7200 0003194 153.6916 353.5401 12.22060339133941
GLOBALSTAR M025 [-]     
1 25770U 99031A   24114.21105554 -.00000061  00000+0  18913-3 0  9990
2 25770  51.9838  52.1665 0001295 151.2825 357.2488 11.22550373434549
GLOBALSTAR M049 [-]     
1 25771U 99031B   24114.32995014 -.00000101  00000+0 -12318-2 0  9999
2 25771  51.9883  65.5540 0003122  29.3216 330.7755 11.12103286 70714
GLOBALSTAR M047 [-]     
1 25772U 99031C   24115.30482927 -.00000076  00000+0 -17251-3 0  9996
2 25772  51.9811 100.3342 0016407 264.2358  95.6577 11.31920236 98443
GLOBALSTAR M052 [-]     
1 25773U 99031D   24114.52364868 -.00000050  00000+0  52760-3 0  9998
2 25773  51.9844 179.6973 0003046 195.4564 274.0774 11.15050728431690
